{
  "type": "FeatureCollection",
  "features": [
    {
      "type": "Feature",
      "properties": {
        "norad_id": 45358,
        "name": "COSMOS 2545 (760)",
        "group": "gnss",
        "lat": -29.462767386657976,
        "lon": -56.49354797511896,
        "alt_km": 19127.82951836009,
        "timestamp": "2025-12-06T18:50:10.411797+00:00",
        "meta_object_name": "COSMOS 2545 (760)",
        "meta_object_id": "2020-018A",
        "meta_epoch": "2025-12-01T04:43:25.038912",
        "meta_mean_motion": 2.13102323,
        "meta_eccentricity": 0.00119194,
        "meta_inclination": 64.4762,
        "meta_ra_of_asc_node": 319.3749,
        "meta_arg_of_pericenter": 248.338,
        "meta_mean_anomaly": 111.5456,
        "meta_ephemeris_type": 0,
        "meta_classification_type": "U",
        "meta_norad_cat_id": 45358,
        "meta_element_set_no": 999,
        "meta_rev_at_epoch": 4444,
        "meta_bstar": 0,
        "meta_mean_motion_dot": -2.8e-07,
        "meta_mean_motion_ddot": 0,
        "tle_line1": "1 45358U 20018A   25335.19681758 -.00000028  00000+0  00000+0 0  9998",
        "tle_line2": "2 45358  64.4762 319.3749 0011919 248.3380 111.5456  2.13102323 44447"
      },
      "geometry": {
        "type": "Point",
        "coordinates": [
          -56.49354797511896,
          -29.462767386657976
        ]
      }
    },
    {
      "type": "Feature",
      "properties": {
        "norad_id": 45807,
        "name": "BEIDOU-3 G3 (C61)",
        "group": "gnss",
        "lat": 1.3495126271638047,
        "lon": 108.83898144124618,
        "alt_km": 35790.979384578575,
        "timestamp": "2025-12-06T18:50:10.411809+00:00",
        "meta_object_name": "BEIDOU-3 G3 (C61)",
        "meta_object_id": "2020-040A",
        "meta_epoch": "2025-12-06T00:54:51.715584",
        "meta_mean_motion": 1.00265272,
        "meta_eccentricity": 0.00051291,
        "meta_inclination": 1.9742,
        "meta_ra_of_asc_node": 66.5538,
        "meta_arg_of_pericenter": 303.673,
        "meta_mean_anomaly": 189.0335,
        "meta_ephemeris_type": 0,
        "meta_classification_type": "U",
        "meta_norad_cat_id": 45807,
        "meta_element_set_no": 999,
        "meta_rev_at_epoch": 2013,
        "meta_bstar": 0,
        "meta_mean_motion_dot": -3.45e-06,
        "meta_mean_motion_ddot": 0,
        "tle_line1": "1 45807U 20040A   25340.03809856 -.00000345  00000+0  00000+0 0  9994",
        "tle_line2": "2 45807   1.9742  66.5538 0005129 303.6730 189.0335  1.00265272 20131"
      },
      "geometry": {
        "type": "Point",
        "coordinates": [
          108.83898144124618,
          1.3495126271638047
        ]
      }
    },
    {
      "type": "Feature",
      "properties": {
        "norad_id": 45854,
        "name": "GPS BIII-3  (PRN 23)",
        "group": "gnss",
        "lat": 4.1277599332913795,
        "lon": 39.170085810805354,
        "alt_km": 20334.388656129464,
        "timestamp": "2025-12-06T18:50:10.411821+00:00",
        "meta_object_name": "GPS BIII-3  (PRN 23)",
        "meta_object_id": "2020-041A",
        "meta_epoch": "2025-12-05T00:44:21.679872",
        "meta_mean_motion": 2.00561656,
        "meta_eccentricity": 0.00602963,
        "meta_inclination": 56.5415,
        "meta_ra_of_asc_node": 36.4861,
        "meta_arg_of_pericenter": 203.0901,
        "meta_mean_anomaly": 335.2174,
        "meta_ephemeris_type": 0,
        "meta_classification_type": "U",
        "meta_norad_cat_id": 45854,
        "meta_element_set_no": 999,
        "meta_rev_at_epoch": 4014,
        "meta_bstar": 0,
        "meta_mean_motion_dot": -6.7e-07,
        "meta_mean_motion_ddot": 0,
        "tle_line1": "1 45854U 20041A   25339.03080648 -.00000067  00000+0  00000+0 0  9996",
        "tle_line2": "2 45854  56.5415  36.4861 0060296 203.0901 335.2174  2.00561656 40145"
      },
      "geometry": {
        "type": "Point",
        "coordinates": [
          39.170085810805354,
          4.1277599332913795
        ]
      }
    },
    {
      "type": "Feature",
      "properties": {
        "norad_id": 46114,
        "name": "GALAXY 30 (WAAS/PRN 135)",
        "group": "gnss",
        "lat": -0.03992765732102092,
        "lon": -126.66055751950037,
        "alt_km": 35776.5418302542,
        "timestamp": "2025-12-06T18:50:10.411833+00:00",
        "meta_object_name": "GALAXY 30 (WAAS/PRN 135)",
        "meta_object_id": "2020-056C",
        "meta_epoch": "2025-12-06T06:13:24.843648",
        "meta_mean_motion": 1.0027024,
        "meta_eccentricity": 0.00024879,
        "meta_inclination": 0.016,
        "meta_ra_of_asc_node": 339.3733,
        "meta_arg_of_pericenter": 273.2782,
        "meta_mean_anomaly": 151.0031,
        "meta_ephemeris_type": 0,
        "meta_classification_type": "U",
        "meta_norad_cat_id": 46114,
        "meta_element_set_no": 999,
        "meta_rev_at_epoch": 1935,
        "meta_bstar": 0,
        "meta_mean_motion_dot": 4.5e-07,
        "meta_mean_motion_ddot": 0,
        "tle_line1": "1 46114U 20056C   25340.25931532  .00000045  00000+0  00000+0 0  9990",
        "tle_line2": "2 46114   0.0160 339.3733 0002487 273.2782 151.0031  1.00270240 19353"
      },
      "geometry": {
        "type": "Point",
        "coordinates": [
          -126.66055751950037,
          -0.03992765732102092
        ]
      }
    },
    {
      "type": "Feature",
      "properties": {
        "norad_id": 46805,
        "name": "COSMOS 2547 (705K)",
        "group": "gnss",
        "lat": -2.3853281293071054,
        "lon": 20.033442906576653,
        "alt_km": 19119.914522369967,
        "timestamp": "2025-12-06T18:50:10.411845+00:00",
        "meta_object_name": "COSMOS 2547 (705K)",
        "meta_object_id": "2020-075A",
        "meta_epoch": "2025-12-04T04:48:34.576416",
        "meta_mean_motion": 2.13099889,
        "meta_eccentricity": 0.0006264,
        "meta_inclination": 64.5958,
        "meta_ra_of_asc_node": 198.9817,
        "meta_arg_of_pericenter": 229.2044,
        "meta_mean_anomaly": 130.8379,
        "meta_ephemeris_type": 0,
        "meta_classification_type": "U",
        "meta_norad_cat_id": 46805,
        "meta_element_set_no": 999,
        "meta_rev_at_epoch": 3975,
        "meta_bstar": 0,
        "meta_mean_motion_dot": 1.01e-06,
        "meta_mean_motion_ddot": 0,
        "tle_line1": "1 46805U 20075A   25338.20040019  .00000101  00000+0  00000+0 0  9994",
        "tle_line2": "2 46805  64.5958 198.9817 0006264 229.2044 130.8379  2.13099889 39750"
      },
      "geometry": {
        "type": "Point",
        "coordinates": [
          20.033442906576653,
          -2.3853281293071054
        ]
      }
    },
    {
      "type": "Feature",
      "properties": {
        "norad_id": 46826,
        "name": "GPS BIII-4  (PRN 14)",
        "group": "gnss",
        "lat": -19.160071634370613,
        "lon": -156.01939755122024,
        "alt_km": 20297.900534837245,
        "timestamp": "2025-12-06T18:50:10.411856+00:00",
        "meta_object_name": "GPS BIII-4  (PRN 14)",
        "meta_object_id": "2020-078A",
        "meta_epoch": "2025-11-12T03:01:29.191584",
        "meta_mean_motion": 2.00567032,
        "meta_eccentricity": 0.00639112,
        "meta_inclination": 54.0223,
        "meta_ra_of_asc_node": 219.5836,
        "meta_arg_of_pericenter": 203.4986,
        "meta_mean_anomaly": 326.7753,
        "meta_ephemeris_type": 0,
        "meta_classification_type": "U",
        "meta_norad_cat_id": 46826,
        "meta_element_set_no": 999,
        "meta_rev_at_epoch": 3715,
        "meta_bstar": 0,
        "meta_mean_motion_dot": -3.4e-07,
        "meta_mean_motion_ddot": 0,
        "tle_line1": "1 46826U 20078A   25316.12603231 -.00000034  00000+0  00000+0 0  9994",
        "tle_line2": "2 46826  54.0223 219.5836 0063911 203.4986 326.7753  2.00567032 37154"
      },
      "geometry": {
        "type": "Point",
        "coordinates": [
          -156.01939755122024,
          -19.160071634370613
        ]
      }
    },
    {
      "type": "Feature",
      "properties": {
        "norad_id": 48859,
        "name": "GPS BIII-5  (PRN 11)",
        "group": "gnss",
        "lat": 15.479641671903298,
        "lon": 149.1089671305348,
        "alt_km": 20161.12507661335,
        "timestamp": "2025-12-06T18:50:10.411876+00:00",
        "meta_object_name": "GPS BIII-5  (PRN 11)",
        "meta_object_id": "2021-054A",
        "meta_epoch": "2025-11-30T17:12:22.002912",
        "meta_mean_motion": 2.00553932,
        "meta_eccentricity": 0.0024653,
        "meta_inclination": 55.2606,
        "meta_ra_of_asc_node": 340.4377,
        "meta_arg_of_pericenter": 232.9477,
        "meta_mean_anomaly": 227.2059,
        "meta_ephemeris_type": 0,
        "meta_classification_type": "U",
        "meta_norad_cat_id": 48859,
        "meta_element_set_no": 999,
        "meta_rev_at_epoch": 3277,
        "meta_bstar": 0,
        "meta_mean_motion_dot": -5.5e-07,
        "meta_mean_motion_ddot": 0,
        "tle_line1": "1 48859U 21054A   25334.71692133 -.00000055  00000+0  00000+0 0  9994",
        "tle_line2": "2 48859  55.2606 340.4377 0024653 232.9477 227.2059  2.00553932 32777"
      },
      "geometry": {
        "type": "Point",
        "coordinates": [
          149.1089671305348,
          15.479641671903298
        ]
      }
    }
  ]
}